NORAD_CAT_ID,OBJECT_NAME,OBJECT_TYPE,EPOCH,MEAN_MOTION,ECCENTRICITY,INCLINATION,RA_OF_ASC_NODE,ARG_OF_PERICENTER,MEAN_ANOMALY,BSTAR,MEAN_MOTION_DOT,MEAN_MOTION_DDOT,TLE_LINE0,TLE_LINE1,TLE_LINE2,SEMIMAJOR_AXIS,PERIOD,APOGEE,PERIGEE,DECAYED
52348.0,STARLINK-3829,PAYLOAD,2022-12-26 19:51:49,15.08829633,0.0001923,53.2156,46.3591,51.1909,308.9254,1.7487e-05,-1e-07,0.0,0 STARLINK-3829,1 52348U 22045T   22360.82766073 -.00000010  00000-0  17487-4 0  9990,2 52348  53.2156  46.3591 0001923  51.1909 308.9254 15.08829633 39327,6917.9119999999975,95.438,541.107,538.447,0.0
52348.0,STARLINK-3829,PAYLOAD,2022-12-27 13:21:03,15.08847736,0.0001943,53.2152,43.0871,51.1269,308.9896,0.00019288,2.784e-05,0.0,0 STARLINK-3829,1 52348U 22045T   22361.55628541  .00002784  00000-0  19288-3 0  9997,2 52348  53.2152  43.0871 0001943  51.1269 308.9896 15.08847736 39437,6917.857,95.437,541.066,538.378,0.0
52348.0,STARLINK-3829,PAYLOAD,2022-12-28 02:04:07,15.08856782,0.0001875,53.2155,40.7077,48.84,311.2754,0.00019251,2.778e-05,0.0,0 STARLINK-3829,1 52348U 22045T   22362.08619866  .00002778  00000-0  19251-3 0  9999,2 52348  53.2155  40.7077 0001875  48.8400 311.2754 15.08856782 39516,6917.829000000002,95.436,540.991,538.3969999999998,0.0
52348.0,STARLINK-3829,PAYLOAD,2022-12-29 03:30:19,15.08835839,0.0001824,53.2159,35.9491,51.24,308.8755,-1.4728e-06,-3.12e-06,0.0,0 STARLINK-3829,1 52348U 22045T   22363.14605712 -.00000312  00000-0 -14728-5 0  9992,2 52348  53.2159  35.9491 0001824  51.2400 308.8755 15.08835839 39678,6917.893,95.438,541.02,538.496,0.0
52348.0,STARLINK-3829,PAYLOAD,2022-12-29 19:24:12,15.08826042,0.0001884,53.2155,32.9762,48.0524,312.0628,-0.00020488,-3.546e-05,0.0,0 STARLINK-3829,1 52348U 22045T   22363.80847238 -.00003546  00000-0 -20488-3 0  9996,2 52348  53.2155  32.9762 0001884  48.0524 312.0628 15.08826042 39772,6917.9230000000025,95.438,541.091,538.485,0.0
52348.0,STARLINK-3829,PAYLOAD,2022-12-30 09:42:39,15.08839035,0.0001984,53.2157,30.2998,45.6261,314.4894,2.5023e-05,1.1e-06,0.0,0 STARLINK-3829,1 52348U 22045T   22364.40462114  .00000110  00000-0  25023-4 0  9992,2 52348  53.2157  30.2998 0001984  45.6261 314.4894 15.08839035 39865,6917.8830000000025,95.438,541.121,538.376,0.0
52348.0,STARLINK-3829,PAYLOAD,2022-12-30 19:14:57,15.08845844,0.0001906,53.2156,28.5154,48.7849,311.3307,0.00022097,3.231e-05,0.0,0 STARLINK-3829,1 52348U 22045T   22364.80205364  .00003231  00000-0  22097-3 0  9992,2 52348  53.2156  28.5154 0001906  48.7849 311.3307 15.08845844 39925,6917.863,95.437,541.0459999999998,538.409,0.0
52348.0,STARLINK-3829,PAYLOAD,2022-12-31 11:08:48,15.08857464,0.0001988,53.2155,25.54300000000001,42.7741,317.3406,0.00056282,8.685e-05,0.0,0 STARLINK-3829,1 52348U 22045T   22365.46445173  .00008685  00000-0  56282-3 0  9990,2 52348  53.2155  25.5430 0001988  42.7741 317.3406 15.08857464 40023,6917.8269999999975,95.436,541.067,538.317,0.0
52348.0,STARLINK-3829,PAYLOAD,2023-01-01 04:38:03,15.08844732,0.000165,53.2148,22.2676,52.1085,308.0056,0.0002015,2.921e-05,0.0,0 STARLINK-3829,1 52348U 22045T   23001.19309534  .00002921  00000-0  20150-3 0  9990,2 52348  53.2148  22.2676 0001650  52.1085 308.0056 15.08844732 40137,6917.866,95.437,540.872,538.589,0.0
52348.0,STARLINK-3829,PAYLOAD,2023-01-01 10:59:37,15.0882409,0.0002024,53.2166,21.0796,43.1165,316.9986,-0.00023688,-4.055e-05,0.0,0 STARLINK-3829,1 52348U 22045T   23001.45806758 -.00004055  00000-0 -23688-3 0  9990,2 52348  53.2166  21.0796 0002024  43.1165 316.9986 15.08824090 40171,6917.929,95.439,541.194,538.394,0.0
52348.0,STARLINK-3829,PAYLOAD,2023-01-02 01:18:05,15.08828967,0.0001876999999999,53.2159,18.4047,39.9617,320.1513,-0.00026782,-4.547e-05,0.0,0 STARLINK-3829,1 52348U 22045T   23002.05422768 -.00004547  00000-0 -26782-3 0  9996,2 52348  53.2159  18.4047 0001877  39.9617 320.1513 15.08828967 40262,6917.9140000000025,95.438,541.078,538.481,0.0
52348.0,STARLINK-3829,PAYLOAD,2023-01-02 07:39:37,15.08838615,0.0001947,53.2147,17.2154,44.0103,316.1044,-0.00011464,-2.112e-05,0.0,0 STARLINK-3829,1 52348U 22045T   23002.31918376 -.00002112  00000-0 -11464-3 0  9997,2 52348  53.2147  17.2154 0001947  44.0103 316.1044 15.08838615 40300,6917.885,95.438,541.097,538.403,0.0
52348.0,STARLINK-3829,PAYLOAD,2023-01-02 10:50:23,15.08843996,0.0002043,53.2149,16.6204,49.2657,310.8512,-1.3497e-05,-5.03e-06,0.0,0 STARLINK-3829,1 52348U 22045T   23002.45166211 -.00000503  00000-0 -13497-4 0  9996,2 52348  53.2149  16.6204 0002043  49.2657 310.8512 15.08843996 40321,6917.868,95.437,541.146,538.32,0.0
52348.0,STARLINK-3829,PAYLOAD,2023-01-03 10:41:11,15.08849942,0.0002034,53.215,12.1601,48.526,311.5906,0.00049889,7.663e-05,0.0,0 STARLINK-3829,1 52348U 22045T   23003.44526716  .00007663  00000-0  49889-3 0  9991,2 52348  53.2150  12.1601 0002034  48.5260 311.5906 15.08849942 40475,6917.85,95.437,541.122,538.308,0.0
52348.0,STARLINK-3829,PAYLOAD,2023-01-03 17:02:43,15.08842057,0.0002008,53.2144,10.9696,41.2496,318.8647,0.00012562,1.712e-05,0.0,0 STARLINK-3829,1 52348U 22045T   23003.71022798  .00001712  00000-0  12562-3 0  9999,2 52348  53.2144  10.9696 0002008  41.2496 318.8647 15.08842057 40517,6917.874,95.437,541.128,538.35,0.0
52348.0,STARLINK-3829,PAYLOAD,2023-01-04 07:21:11,15.08849876,0.0001963,53.2143,8.2934,44.6674,315.4476,0.00025561,3.783e-05,0.0,0 STARLINK-3829,1 52348U 22045T   23004.30638412  .00003783  00000-0  25561-3 0  9994,2 52348  53.2143   8.2934 0001963  44.6674 315.4476 15.08849876 40604,6917.85,95.437,541.073,538.357,0.0
52348.0,STARLINK-3829,PAYLOAD,2023-01-04 16:53:30,15.08851301,0.0001996,53.2146,6.5089,47.1106,313.0054,0.0002126,3.098e-05,0.0,0 STARLINK-3829,1 52348U 22045T   23004.70382184  .00003098  00000-0  21260-3 0  9991,2 52348  53.2146   6.5089 0001996  47.1106 313.0054 15.08851301 40661,6917.846,95.437,541.092,538.33,0.0
52348.0,STARLINK-3829,PAYLOAD,2023-01-05 08:47:20,15.08863677,0.0002024,53.2151,3.536,48.9897,311.127,0.00040435,6.157e-05,0.0,0 STARLINK-3829,1 52348U 22045T   23005.36621138  .00006157  00000-0  40435-3 0  9993,2 52348  53.2151   3.5360 0002024  48.9897 311.1270 15.08863677 40764,6917.808000000001,95.436,541.073,538.273,0.0
52348.0,STARLINK-3829,PAYLOAD,2023-01-05 18:19:38,15.08861579,0.0001903,53.2151,1.7523,49.4884,310.6274,0.00014462,2.016e-05,0.0,0 STARLINK-3829,1 52348U 22045T   23005.76364572  .00002016  00000-0  14462-3 0  9994,2 52348  53.2151   1.7523 0001903  49.4884 310.6274 15.08861579 40826,6917.814,95.436,540.996,538.363,0.0
52348.0,STARLINK-3829,PAYLOAD,2023-01-06 08:38:07,15.08833773,0.0001896,53.2149,359.0738,51.5265,308.5897,-0.00028026,-4.745e-05,0.0,0 STARLINK-3829,1 52348U 22045T   23006.35981479 -.00004745  00000-0 -28026-3 0  9995,2 52348  53.2149 359.0738 0001896  51.5265 308.5897 15.08833773 40910,6917.899,95.438,541.076,538.453,0.0
52348.0,STARLINK-3829,PAYLOAD,2023-01-06 21:21:13,15.08832314,0.0002074,53.2144,356.6956,49.917,310.2004,-0.00020999,-3.628e-05,0.0,0 STARLINK-3829,1 52348U 22045T   23006.88973920 -.00003628  00000-0 -20999-3 0  9995,2 52348  53.2144 356.6956 0002074  49.9170 310.2004 15.08832314 40993,6917.904,95.438,541.2040000000002,538.3340000000002,0.0
52348.0,STARLINK-3829,PAYLOAD,2023-01-07 05:18:09,15.08835578,0.0001833,53.2146,355.2087,50.1824,309.9329,0.00040264,6.125e-05,0.0,0 STARLINK-3829,1 52348U 22045T   23007.22094050  .00006125  00000-0  40264-3 0  9992,2 52348  53.2146 355.2087 0001833  50.1824 309.9329 15.08835578 41044,6917.894,95.438,541.0269999999998,538.491,0.0
52348.0,STARLINK-3829,PAYLOAD,2023-01-07 19:36:38,15.08832488,0.000172,53.2143,352.5325,50.0055,310.1088,0.00044605,6.817e-05,0.0,0 STARLINK-3829,1 52348U 22045T   23007.81710751  .00006817  00000-0  44605-3 0  9991,2 52348  53.2143 352.5325 0001720  50.0055 310.1088 15.08832488 41139,6917.903,95.438,540.9580000000002,538.578,0.0
52348.0,STARLINK-3829,PAYLOAD,2023-01-07 22:47:24,15.08831855,0.0001721999999999,53.2144,351.9375,53.2547,306.8603,0.00028808,4.299e-05,0.0,0 STARLINK-3829,1 52348U 22045T   23007.94958822  .00004299  00000-0  28808-3 0  9997,2 52348  53.2144 351.9375 0001722  53.2547 306.8603 15.08831855 41155,6917.905,95.438,540.962,538.5790000000002,0.0
52348.0,STARLINK-3829,PAYLOAD,2023-01-08 05:08:57,15.08831097,0.0001663,53.2152,350.7480000000001,48.0703,312.043,0.00027433,4.08e-05,0.0,0 STARLINK-3829,1 52348U 22045T   23008.21455060  .00004080  00000-0  27433-3 0  9995,2 52348  53.2152 350.7480 0001663  48.0703 312.0430 15.08831097 41197,6917.908,95.438,540.923,538.622,0.0
52348.0,STARLINK-3829,PAYLOAD,2023-01-08 22:38:11,15.08850641,0.0001764,53.2148,347.4763,51.8108,308.3043,0.00046622,7.142e-05,0.0,0 STARLINK-3829,1 52348U 22045T   23008.94318571  .00007142  00000-0  46622-3 0  9993,2 52348  53.2148 347.4763 0001764  51.8108 308.3043 15.08850641 41309,6917.848000000001,95.437,540.933,538.493,0.0
52348.0,STARLINK-3829,PAYLOAD,2023-01-09 04:59:43,15.08848887,0.000184,53.2151,346.2871,47.2073,312.9074,0.00050918,7.827e-05,0.0,0 STARLINK-3829,1 52348U 22045T   23009.20814691  .00007827  00000-0  50918-3 0  9990,2 52348  53.2151 346.2871 0001840  47.2073 312.9074 15.08848887 41343,6917.853,95.437,540.991,538.445,0.0
52348.0,STARLINK-3829,PAYLOAD,2023-01-09 22:28:58,15.0884995,0.000186,53.2152,343.0159,48.7167,311.3985,0.00025411,3.759e-05,0.0,0 STARLINK-3829,1 52348U 22045T   23009.93678397  .00003759  00000-0  25411-3 0  9991,2 52348  53.2152 343.0159 0001860  48.7167 311.3985 15.08849950 41458,6917.85,95.437,541.002,538.428,0.0
52348.0,STARLINK-3829,PAYLOAD,2023-01-10 08:01:17,15.08840741,0.0001736,53.2159,341.2319,45.9942,314.1193,0.00013052,1.7899999999999998e-05,0.0,0 STARLINK-3829,1 52348U 22045T   23010.33422684  .00001790  00000-0  13052-3 0  9994,2 52348  53.2159 341.2319 0001736  45.9942 314.1193 15.08840741 41513,6917.8780000000015,95.438,540.944,538.5419999999998,0.0
